COSMOS 2433 (720)       
1 32275U 07052A   23257.82543600 -.00000072  00000+0  00000+0 0  9998
2 32275  66.0189 349.5872 0004070 223.0040 137.0071  2.13104254123615
COSMOS 2432 (719)       
1 32276U 07052B   23258.45237334 -.00000069  00000+0  00000+0 0  9999
2 32276  66.0332 349.6751 0008459 317.5361 110.4683  2.13103371123650
COSMOS 2434 (721)       
1 32393U 07065A   23258.02917109  .00000023  00000+0  00000+0 0  9990
2 32393  64.3362 225.9421 0000479  71.0580 336.4600  2.13103129122337
COSMOS 2436 (723)       
1 32395U 07065C   23258.02871243  .00000023  00000+0  00000+0 0  9990
2 32395  64.3450 226.0039 0015850 353.5848 189.0868  2.13102812122288
COSMOS 2456 (730)       
1 36111U 09070A   23258.50518207  .00000055  00000+0  00000+0 0  9994
2 36111  64.4948 105.4227 0001859 338.0536 233.6673  2.13099276106995
COSMOS 2457 (733)       
1 36112U 09070B   23258.30163795  .00000055  00000+0  00000+0 0  9991
2 36112  64.4787 105.2947 0005992 146.7328  39.7098  2.13101451106994
COSMOS 2460 (732)       
1 36402U 10007C   23258.05193078 -.00000070  00000+0  00000+0 0  9992
2 36402  65.8811 348.2932 0001559 189.7941 153.6006  2.13106423105285
COSMOS 2476 (744)       
1 37867U 11064A   23258.78268591  .00000055  00000+0  00000+0 0  9997
2 37867  64.7745 106.9447 0021186 231.6026 102.4155  2.13101812 92384
COSMOS 2477 (745)       
1 37868U 11064B   23258.69941532  .00000056  00000+0  00000+0 0  9992
2 37868  64.7817 107.0172 0018397 231.8840 216.1324  2.13101707 92348
COSMOS 2475 (743)       
1 37869U 11064C   23258.40353941  .00000056  00000+0  00000+0 0  9993
2 37869  64.7888 107.0395 0022476 250.2974 289.2252  2.13102065 92338
COSMOS 2485 (747)       
1 39155U 13019A   23258.75857038  .00000056  00000+0  00000+0 0  9999
2 39155  64.9346 107.4717 0021707 227.5382 132.3730  2.13102003 80852
COSMOS 2492 (754)       
1 39620U 14012A   23257.77549757 -.00000071  00000+0  00000+0 0  9995
2 39620  65.7647 347.9195 0011598 314.8863  45.0650  2.13103263 73799
COSMOS 2500 (755)       
1 40001U 14032A   23258.42790651 -.00000068  00000+0  00000+0 0  9992
2 40001  65.7026 347.7243 0008219 201.0830 158.9311  2.13106018 72028
COSMOS 2501 (702K)      
1 40315U 14075A   23257.73937098  .00000019  00000+0  00000+0 0  9993
2 40315  63.6397 225.2969 0019852 211.0703 148.7882  2.13101363 68409
COSMOS 2514 (751)       
1 41330U 16008A   23258.19003237 -.00000069  00000+0  00000+0 0  9995
2 41330  65.4999 347.3108 0011981 208.8992 151.0823  2.13102758 59181
COSMOS 2516 (753)       
1 41554U 16032A   23253.61194007  .00000030  00000+0  00000+0 0  9995
2 41554  63.8665 225.8433 0015423 214.4947 145.3935  2.13106454 56690
COSMOS 2522 (752)       
1 42939U 17055A   23258.03171497  .00000023  00000+0  00000+0 0  9990
2 42939  64.1002 226.2188 0009551 243.3492 116.5292  2.13102048 46533
COSMOS 2527 (756)       
1 43508U 18053A   23257.99049950  .00000057  00000+0  00000+0 0  9991
2 43508  65.0957 107.5923 0007358 216.8686 143.1776  2.13102514 40834
COSMOS 2529 (757)       
1 43687U 18086A   23258.08970716  .00000024  00000+0  00000+0 0  9993
2 43687  64.3155 226.6553 0011215 262.6752  97.1738  2.13102097 37845
COSMOS 2534 (758)       
1 44299U 19030A   23258.64469646  .00000028  00000+0  00000+0 0  9994
2 44299  64.3881 226.5638 0013389 281.8971 277.9999  2.13102024 33500
COSMOS 2544 (759)       
1 44850U 19088A   23257.93423906  .00000057  00000+0  00000+0 0  9992
2 44850  65.0816 107.4368 0011224 250.9679 109.0071  2.13102294 29278
COSMOS 2545 (760)       
1 45358U 20018A   23258.13101005 -.00000071  00000+0  00000+0 0  9994
2 45358  64.8402 347.5491 0010321 238.2294 121.7172  2.13102648 27222
COSMOS 2547 (705K)      
1 46805U 20075A   23258.31990574  .00000026  00000+0  00000+0 0  9991
2 46805  64.6154 226.1342 0008367 244.0298 115.8603  2.13102928 22471
COSMOS 2557 (706K)      
1 52984U 22075A   23257.07477499 -.00000078  00000+0  00000+0 0  9994
2 52984  64.7574 349.7439 0012107 275.2945  84.6073  2.13102429  9255
COSMOS 2559 (707K)      
1 54031U 22130A   23257.48604662 -.00000076  00000+0  00000+0 0  9998
2 54031  64.7286 349.8568 0007307 218.4705 141.5184  2.13101662  7233
COSMOS 2564 (761)       
1 54377U 22161A   23258.14835831  .00000024  00000+0  00000+0 0  9995
2 54377  64.7563 226.1949 0010653 225.9981 133.8906  2.13102200  6190
